start=new Date('2022-05-19T00:00:00.000Z').valueOf();
sats=[{"RCS_SIZE":"LARGE","NORAD_CAT_ID":"44931","MEAN_ANOMALY":"327.9047","ECCENTRICITY":"0.00042880","PERIOD":"95.322","CENTER_NAME":"EARTH","COUNTRY_CODE":"US","CLASSIFICATION_TYPE":"U","TIME_SYSTEM":"UTC","INCLINATION":"53.0544","ELEMENT_SET_NO":"999","ARG_OF_PERICENTER":"32.2205","SEMIMAJOR_AXIS":"6912.277","MEAN_MOTION":"15.10675037","OBJECT_NAME":"STARLINK-1128","BSTAR":"-0.00005524900000","MEAN_MOTION_DDOT":"0.0000000000000","REV_AT_EPOCH":"13099","GP_ID":"203903347","RA_OF_ASC_NODE":"106.7123","LAUNCH_DATE":"2020-01-07","OBJECT_ID":"2020-001T","FILE":"3452356","EPHEMERIS_TYPE":"0","MEAN_MOTION_DOT":"-0.00001220","REF_FRAME":"TEME","TLE_LINE1":"1 44931U 20001T   22138.63324958 -.00001220  00000-0 -55249-4 0  9996","EPOCH":"2022-05-18T15:11:52.763712","SITE":"AFETR","APOAPSIS":"537.106","DECAY_DATE":null,"PERIAPSIS":"531.178","MEAN_ELEMENT_THEORY":"SGP4","TLE_LINE2":"2 44931  53.0544 106.7123 0004288  32.2205 327.9047 15.10675037130999","OBJECT_TYPE":"PAYLOAD"},{"RCS_SIZE":"LARGE","NORAD_CAT_ID":"44932","MEAN_ANOMALY":"311.9730","ECCENTRICITY":"0.00021440","CENTER_NAME":"EARTH","PERIOD":"95.593","COUNTRY_CODE":"US","CLASSIFICATION_TYPE":"U","TIME_SYSTEM":"UTC","ARG_OF_PERICENTER":"48.1442","ELEMENT_SET_NO":"999","INCLINATION":"53.0548","SEMIMAJOR_AXIS":"6925.380","MEAN_MOTION":"15.06389782","OBJECT_NAME":"STARLINK-1130","BSTAR":"0.00007124300000","MEAN_MOTION_DDOT":"0.0000000000000","REV_AT_EPOCH":"13141","RA_OF_ASC_NODE":"111.3873","GP_ID":"203902095","LAUNCH_DATE":"2020-01-07","OBJECT_ID":"2020-001U","EPHEMERIS_TYPE":"0","FILE":"3452356","REF_FRAME":"TEME","MEAN_MOTION_DOT":"0.00000779","TLE_LINE1":"1 44932U 20001U   22138.61671281  .00000779  00000-0  71243-4 0  9997","EPOCH":"2022-05-18T14:48:03.986784","SITE":"AFETR","APOAPSIS":"548.730","DECAY_DATE":null,"PERIAPSIS":"545.760","TLE_LINE2":"2 44932  53.0548 111.3873 0002144  48.1442 311.9730 15.06389782131410","MEAN_ELEMENT_THEORY":"SGP4","OBJECT_TYPE":"PAYLOAD"},{"OBJECT_TYPE":"PAYLOAD","MEAN_ELEMENT_THEORY":"SGP4","TLE_LINE2":"2 44933  53.0552 111.2791 0002018  55.3990 304.7189 15.06404920131478","APOAPSIS":"548.596","DECAY_DATE":null,"PERIAPSIS":"545.801","TLE_LINE1":"1 44933U 20001V   22138.64250836  .00000443  00000-0  48636-4 0  9998","EPOCH":"2022-05-18T15:25:12.722304","SITE":"AFETR","FILE":"3452356","EPHEMERIS_TYPE":"0","REF_FRAME":"TEME","MEAN_MOTION_DOT":"0.00000443","LAUNCH_DATE":"2020-01-07","OBJECT_ID":"2020-001V","REV_AT_EPOCH":"13147","GP_ID":"203902345","RA_OF_ASC_NODE":"111.2791","BSTAR":"0.00004863600000","MEAN_MOTION_DDOT":"0.0000000000000","OBJECT_NAME":"STARLINK-1144","SEMIMAJOR_AXIS":"6925.333","MEAN_MOTION":"15.06404920","TIME_SYSTEM":"UTC","ELEMENT_SET_NO":"999","INCLINATION":"53.0552","ARG_OF_PERICENTER":"55.3990","PERIOD":"95.592","CENTER_NAME":"EARTH","COUNTRY_CODE":"US","CLASSIFICATION_TYPE":"U","MEAN_ANOMALY":"304.7189","ECCENTRICITY":"0.00020180","RCS_SIZE":"LARGE","NORAD_CAT_ID":"44933"},{"GP_ID":"203903596","RA_OF_ASC_NODE":"90.3251","REV_AT_EPOCH":"13049","OBJECT_ID":"2020-001W","LAUNCH_DATE":"2020-01-07","MEAN_MOTION_DOT":"0.00002173","REF_FRAME":"TEME","FILE":"3452356","EPHEMERIS_TYPE":"0","SITE":"AFETR","TLE_LINE1":"1 44934U 20001W   22138.85444886  .00002173  00000-0  16471-3 0  9995","EPOCH":"2022-05-18T20:30:24.381504","DECAY_DATE":null,"PERIAPSIS":"545.959","APOAPSIS":"548.452","MEAN_ELEMENT_THEORY":"SGP4","TLE_LINE2":"2 44934  53.0555  90.3251 0001800  63.0376 297.0797 15.06402756130497","OBJECT_TYPE":"PAYLOAD","NORAD_CAT_ID":"44934","RCS_SIZE":"LARGE","ECCENTRICITY":"0.00018000","MEAN_ANOMALY":"297.0797","CLASSIFICATION_TYPE":"U","COUNTRY_CODE":"US","CENTER_NAME":"EARTH","PERIOD":"95.592","ELEMENT_SET_NO":"999","ARG_OF_PERICENTER":"63.0376","INCLINATION":"53.0555","TIME_SYSTEM":"UTC","MEAN_MOTION":"15.06402756","SEMIMAJOR_AXIS":"6925.340","OBJECT_NAME":"STARLINK-1071","MEAN_MOTION_DDOT":"0.0000000000000","BSTAR":"0.00016471000000"},{"PERIAPSIS":"545.825","DECAY_DATE":null,"APOAPSIS":"548.591","SITE":"AFETR","EPOCH":"2022-05-18T19:58:33.690432","TLE_LINE1":"1 44937U 20001Z   22138.83233438 -.00000744  00000-0 -31027-4 0  9994","OBJECT_TYPE":"PAYLOAD","MEAN_ELEMENT_THEORY":"SGP4","TLE_LINE2":"2 44937  53.0550  90.4214 0001997  57.6908 302.4274 15.06401817130490","OBJECT_ID":"2020-001Z","LAUNCH_DATE":"2020-01-07","GP_ID":"203880764","RA_OF_ASC_NODE":"90.4214","REV_AT_EPOCH":"13049","REF_FRAME":"TEME","MEAN_MOTION_DOT":"-0.00000744","FILE":"3452243","EPHEMERIS_TYPE":"0","MEAN_MOTION":"15.06401817","SEMIMAJOR_AXIS":"6925.343","ELEMENT_SET_NO":"999","ARG_OF_PERICENTER":"57.6908","INCLINATION":"53.0550","TIME_SYSTEM":"UTC","MEAN_MOTION_DDOT":"0.0000000000000","BSTAR":"-0.00003102700000","OBJECT_NAME":"STARLINK-1079","NORAD_CAT_ID":"44937","RCS_SIZE":"LARGE","CLASSIFICATION_TYPE":"U","COUNTRY_CODE":"US","PERIOD":"95.592","CENTER_NAME":"EARTH","ECCENTRICITY":"0.00019970","MEAN_ANOMALY":"302.4274"},{"OBJECT_TYPE":"PAYLOAD","TLE_LINE2":"2 44938  53.0549  91.4660 0001783  54.6248 305.4907 15.06401939130459","MEAN_ELEMENT_THEORY":"SGP4","DECAY_DATE":null,"PERIAPSIS":"545.973","APOAPSIS":"548.442","SITE":"AFETR","EPOCH":"2022-05-18T14:24:10.250496","TLE_LINE1":"1 44938U 20001AA  22138.60011864  .00000756  00000-0  69671-4 0  9994","REF_FRAME":"TEME","MEAN_MOTION_DOT":"0.00000756","EPHEMERIS_TYPE":"0","FILE":"3451871","OBJECT_ID":"2020-001AA","LAUNCH_DATE":"2020-01-07","RA_OF_ASC_NODE":"91.4660","GP_ID":"203870673","REV_AT_EPOCH":"13045","MEAN_MOTION_DDOT":"0.0000000000000","BSTAR":"0.00006967100000","OBJECT_NAME":"STARLINK-1082","MEAN_MOTION":"15.06401939","SEMIMAJOR_AXIS":"6925.343","ARG_OF_PERICENTER":"54.6248","ELEMENT_SET_NO":"999","INCLINATION":"53.0549","TIME_SYSTEM":"UTC","CLASSIFICATION_TYPE":"U","COUNTRY_CODE":"US","PERIOD":"95.592","CENTER_NAME":"EARTH","ECCENTRICITY":"0.00017830","MEAN_ANOMALY":"305.4907","NORAD_CAT_ID":"44938","RCS_SIZE":"LARGE"},{"MEAN_MOTION_DDOT":"0.0000000000000","BSTAR":"0.00009358000000","OBJECT_NAME":"STARLINK-1083","SEMIMAJOR_AXIS":"6925.326","MEAN_MOTION":"15.06407373","TIME_SYSTEM":"UTC","ELEMENT_SET_NO":"999","INCLINATION":"53.0556","ARG_OF_PERICENTER":"51.1908","COUNTRY_CODE":"US","CLASSIFICATION_TYPE":"U","PERIOD":"95.592","CENTER_NAME":"EARTH","MEAN_ANOMALY":"308.9252","ECCENTRICITY":"0.00019140","RCS_SIZE":"LARGE","NORAD_CAT_ID":"44939","OBJECT_TYPE":"PAYLOAD","MEAN_ELEMENT_THEORY":"SGP4","TLE_LINE2":"2 44939  53.0556  90.2350 0001914  51.1908 308.9252 15.06407373130495","DECAY_DATE":null,"PERIAPSIS":"545.865","APOAPSIS":"548.516","SITE":"AFETR","TLE_LINE1":"1 44939U 20001AB  22138.87287378  .00001113  00000-0  93580-4 0  9993","EPOCH":"2022-05-18T20:56:56.294592","REF_FRAME":"TEME","MEAN_MOTION_DOT":"0.00001113","EPHEMERIS_TYPE":"0","FILE":"3452356","OBJECT_ID":"2020-001AB","LAUNCH_DATE":"2020-01-07","REV_AT_EPOCH":"13049","GP_ID":"203902845","RA_OF_ASC_NODE":"90.2350"},{"ELEMENT_SET_NO":"999","ARG_OF_PERICENTER":"37.3627","INCLINATION":"53.0563","TIME_SYSTEM":"UTC","MEAN_MOTION":"15.06396929","SEMIMAJOR_AXIS":"6925.358","OBJECT_NAME":"STARLINK-1091","MEAN_MOTION_DDOT":"0.0000000000000","BSTAR":"0.00018434000000","NORAD_CAT_ID":"44940","RCS_SIZE":"LARGE","ECCENTRICITY":"0.00020760","MEAN_ANOMALY":"322.7506","CLASSIFICATION_TYPE":"U","COUNTRY_CODE":"US","CENTER_NAME":"EARTH","PERIOD":"95.592","SITE":"AFETR","EPOCH":"2022-05-18T21:12:51.888096","TLE_LINE1":"1 44940U 20001AC  22138.88393389  .00002465  00000-0  18434-3 0  9991","PERIAPSIS":"545.785","DECAY_DATE":null,"APOAPSIS":"548.661","TLE_LINE2":"2 44940  53.0563  90.1878 0002076  37.3627 322.7506 15.06396929130493","MEAN_ELEMENT_THEORY":"SGP4","OBJECT_TYPE":"PAYLOAD","GP_ID":"203903097","RA_OF_ASC_NODE":"90.1878","REV_AT_EPOCH":"13049","OBJECT_ID":"2020-001AC","LAUNCH_DATE":"2020-01-07","MEAN_MOTION_DOT":"0.00002465","REF_FRAME":"TEME","FILE":"3452356","EPHEMERIS_TYPE":"0"},{"OBJECT_NAME":"STARLINK-1094","BSTAR":"0.00001813000000","MEAN_MOTION_DDOT":"0.0000000000000","TIME_SYSTEM":"UTC","INCLINATION":"53.0554","ELEMENT_SET_NO":"999","ARG_OF_PERICENTER":"55.3110","SEMIMAJOR_AXIS":"6925.364","MEAN_MOTION":"15.06395102","MEAN_ANOMALY":"304.8084","ECCENTRICITY":"0.00021770","PERIOD":"95.592","CENTER_NAME":"EARTH","COUNTRY_CODE":"US","CLASSIFICATION_TYPE":"U","RCS_SIZE":"LARGE","NORAD_CAT_ID":"44941","MEAN_ELEMENT_THEORY":"SGP4","TLE_LINE2":"2 44941  53.0554  91.5789 0002177  55.3110 304.8084 15.06395102130459","OBJECT_TYPE":"PAYLOAD","TLE_LINE1":"1 44941U 20001AD  22138.57431946 -.00000012  00000-0  18130-4 0  9991","EPOCH":"2022-05-18T13:47:01.201344","SITE":"AFETR","APOAPSIS":"548.736","PERIAPSIS":"545.721","DECAY_DATE":null,"EPHEMERIS_TYPE":"0","FILE":"3452264","MEAN_MOTION_DOT":"-0.00000012","REF_FRAME":"TEME","REV_AT_EPOCH":"13045","RA_OF_ASC_NODE":"91.5789","GP_ID":"203880857","LAUNCH_DATE":"2020-01-07","OBJECT_ID":"2020-001AD"},{"MEAN_ELEMENT_THEORY":"SGP4","TLE_LINE2":"2 44942  53.0545  91.6358 0002049  65.9152 294.2051 15.06558740130459","OBJECT_TYPE":"PAYLOAD","TLE_LINE1":"1 44942U 20001AE  22138.55931854  .00018839  00000-0  12748-2 0  9995","EPOCH":"2022-05-18T13:25:25.121856","SITE":"AFETR","APOAPSIS":"548.146","DECAY_DATE":null,"PERIAPSIS":"545.308","EPHEMERIS_TYPE":"0","FILE":"3451871","MEAN_MOTION_DOT":"0.00018839","REF_FRAME":"TEME","REV_AT_EPOCH":"13045","RA_OF_ASC_NODE":"91.6358","GP_ID":"203870174","LAUNCH_DATE":"2020-01-07","OBJECT_ID":"2020-001AE","OBJECT_NAME":"STARLINK-1096","BSTAR":"0.00127480000000","MEAN_MOTION_DDOT":"0.0000000000000","TIME_SYSTEM":"UTC","ELEMENT_SET_NO":"999","INCLINATION":"53.0545","ARG_OF_PERICENTER":"65.9152","SEMIMAJOR_AXIS":"6924.862","MEAN_MOTION":"15.06558740","MEAN_ANOMALY":"294.2051","ECCENTRICITY":"0.00020490","PERIOD":"95.582","CENTER_NAME":"EARTH","COUNTRY_CODE":"US","CLASSIFICATION_TYPE":"U","RCS_SIZE":"LARGE","NORAD_CAT_ID":"44942"}];
